[{"OBJECT_NAME":"STARLINK-31432","OBJECT_ID":"2024-106L","EPOCH":"2026-03-09T21:36:19.774368","MEAN_MOTION":15.27564762,"ECCENTRICITY":0.00017264,"INCLINATION":42.9999,"RA_OF_ASC_NODE":331.4538,"ARG_OF_PERICENTER":253.5759,"MEAN_ANOMALY":106.4903,"EPHEMERIS_TYPE":0,"CLASSIFICATION_TYPE":"U","NORAD_CAT_ID":59932,"ELEMENT_SET_NO":999,"REV_AT_EPOCH":10054,"BSTAR":8.3561477e-5,"MEAN_MOTION_DOT":2.037e-5,"MEAN_MOTION_DDOT":0},{"OBJECT_NAME":"KSLV-II R\/B","OBJECT_ID":"2023-072H","EPOCH":"2026-03-09T20:13:26.441760","MEAN_MOTION":15.33109439,"ECCENTRICITY":0.00241884,"INCLINATION":97.4991,"RA_OF_ASC_NODE":274.152,"ARG_OF_PERICENTER":318.2938,"MEAN_ANOMALY":41.646,"EPHEMERIS_TYPE":0,"CLASSIFICATION_TYPE":"U","NORAD_CAT_ID":56750,"ELEMENT_SET_NO":999,"REV_AT_EPOCH":15516,"BSTAR":0.00028309532,"MEAN_MOTION_DOT":9.057e-5,"MEAN_MOTION_DDOT":0}]
